COMMENT,ORIGINATOR,NORAD_CAT_ID,OBJECT_NAME,OBJECT_TYPE,CLASSIFICATION_TYPE,INTLDES,EPOCH,EPOCH_MICROSECONDS,MEAN_MOTION,ECCENTRICITY,INCLINATION,RA_OF_ASC_NODE,ARG_OF_PERICENTER,MEAN_ANOMALY,EPHEMERIS_TYPE,ELEMENT_SET_NO,REV_AT_EPOCH,BSTAR,MEAN_MOTION_DOT,MEAN_MOTION_DDOT,FILE,TLE_LINE0,TLE_LINE1,TLE_LINE2,OBJECT_ID,OBJECT_NUMBER,SEMIMAJOR_AXIS,PERIOD,APOGEE,PERIGEE,DECAYED
"GENERATED VIA SPACETRACK.ORG API","18 SPCS","55102","SPACEBEE-157","PAYLOAD","U","23001CX","2023-12-07 03:27:59","604768","15.30192376","0.0012947","97.4535","40.7494","114.1451","246.1145","0","999","5146","0.00090793","0.00026575","0","4127218","0 SPACEBEE-157","1 55102U 23001CX  23341.14443987  .00026575  00000-0  90793-3 0  9998","2 55102  97.4535  40.7494 0012947 114.1451 246.1145 15.30192376 51462","2023-001CX","55102","6853.375","94.106","484.113","466.367","0"
"GENERATED VIA SPACETRACK.ORG API","18 SPCS","55102","SPACEBEE-157","PAYLOAD","U","23001CX","2023-12-07 09:44:39","508512","15.3020108","0.001307","97.4527","41.0103","113.6721","246.5893","0","999","5150","0.00077628","0.00022707","0","4127505","0 SPACEBEE-157","1 55102U 23001CX  23341.40601283  .00022707  00000-0  77628-3 0  9997","2 55102  97.4527  41.0103 0013070 113.6721 246.5893 15.30201080 51508","2023-001CX","55102","6853.349","94.105","484.171","466.257","0"
"GENERATED VIA SPACETRACK.ORG API","18 SPCS","55102","SPACEBEE-157","PAYLOAD","U","23001CX","2023-12-08 03:00:28","366848","15.30234361","0.0013122","97.4521","41.7309","111.2382","249.0261","0","999","5161","0.00077883","0.00022806","0","4128726","0 SPACEBEE-157","1 55102U 23001CX  23342.12532832  .00022806  00000-0  77883-3 0  9993","2 55102  97.4521  41.7309 0013122 111.2382 249.0261 15.30234361 51619","2023-001CX","55102","6853.249","94.103","484.107","466.122","0"
"GENERATED VIA SPACETRACK.ORG API","18 SPCS","55102","SPACEBEE-157","PAYLOAD","U","23001CX","2023-12-09 04:07:04","419552","15.30279167","0.001288","97.4526","42.7813","107.3152","252.9499","0","999","5177","0.00072401","0.00021218","0","4129485","0 SPACEBEE-157","1 55102U 23001CX  23343.17157893  .00021218  00000-0  72401-3 0  9996","2 55102  97.4526  42.7813 0012880 107.3152 252.9499 15.30279167 51772","2023-001CX","55102","6853.116","94.100","483.808","466.154","0"
"GENERATED VIA SPACETRACK.ORG API","18 SPCS","55102","SPACEBEE-157","PAYLOAD","U","23001CX","2023-12-09 04:07:04","419552","15.30279167","0.001288","97.4526","42.7813","107.3152","252.9499","0","999","5177","0.00072401","0.00021218","0","4130247","0 SPACEBEE-157","1 55102U 23001CX  23343.17157893  .00021218  00000-0  72401-3 0  9996","2 55102  97.4526  42.7813 0012880 107.3152 252.9499 15.30279167 51772","2023-001CX","55102","6853.116","94.100","483.808","466.154","0"
"GENERATED VIA SPACETRACK.ORG API","18 SPCS","55102","SPACEBEE-157","PAYLOAD","U","23001CX","2023-12-09 15:06:11","828448","15.30297994","0.0012989","97.4523","43.2402","106.4711","253.7958","0","999","5184","0.00064531","0.00018909","0","4130742","0 SPACEBEE-157","1 55102U 23001CX  23343.62930357  .00018909  00000-0  64531-3 0  9998","2 55102  97.4523  43.2402 0012989 106.4711 253.7958 15.30297994 51845","2023-001CX","55102","6853.059","94.099","483.826","466.023","0"
"GENERATED VIA SPACETRACK.ORG API","18 SPCS","55102","SPACEBEE-157","PAYLOAD","U","23001CX","2023-12-10 11:30:15","820992","15.30329653","0.0012969","97.452","44.0932","103.7417","256.5268","0","999","5197","0.00060623","0.00017774","0","4131489","0 SPACEBEE-157","1 55102U 23001CX  23344.47934978  .00017774  00000-0  60623-3 0  9992","2 55102  97.4520  44.0932 0012969 103.7417 256.5268 15.30329653 51977","2023-001CX","55102","6852.965","94.097","483.718","465.942","0"
"GENERATED VIA SPACETRACK.ORG API","18 SPCS","55102","SPACEBEE-157","PAYLOAD","U","23001CX","2023-12-10 11:30:15","820992","15.30329653","0.0012969","97.452","44.0932","103.7417","256.5268","0","999","5197","0.00060623","0.00017774","0","4131684","0 SPACEBEE-157","1 55102U 23001CX  23344.47934978  .00017774  00000-0  60623-3 0  9992","2 55102  97.4520  44.0932 0012969 103.7417 256.5268 15.30329653 51977","2023-001CX","55102","6852.965","94.097","483.718","465.942","0"
"GENERATED VIA SPACETRACK.ORG API","18 SPCS","55102","SPACEBEE-157","PAYLOAD","U","23001CX","2023-12-10 22:29:21","951168","15.30347453","0.0012956","97.4519","44.5527","102.19","258.0792","0","999","5204","0.00064943","0.0001906","0","4132333","0 SPACEBEE-157","1 55102U 23001CX  23344.93705962  .00019060  00000-0  64943-3 0  9991","2 55102  97.4519  44.5527 0012956 102.1900 258.0792 15.30347453 52042","2023-001CX","55102","6852.912","94.096","483.655","465.898","0"
"GENERATED VIA SPACETRACK.ORG API","18 SPCS","55102","SPACEBEE-157","PAYLOAD","U","23001CX","2023-12-11 03:11:50","153568","15.3035537","0.001294","97.4519","44.7495","101.5269","258.7425","0","999","5207","0.00064297","0.00018873","0","4133233","0 SPACEBEE-157","1 55102U 23001CX  23345.13321937  .00018873  00000-0  64297-3 0  9993","2 55102  97.4519  44.7495 0012940 101.5269 258.7425 15.30355370 52072","2023-001CX","55102","6852.888","94.096","483.621","465.886","0"
"GENERATED VIA SPACETRACK.ORG API","18 SPCS","55102","SPACEBEE-157","PAYLOAD","U","23001CX","2023-12-11 17:19:14","289888","15.30377874","0.0012957","97.4517","45.3398","99.6845","260.586","0","999","5216","0.00065928","0.00019369","0","4133531","0 SPACEBEE-157","1 55102U 23001CX  23345.72169317  .00019369  00000-0  65928-3 0  9993","2 55102  97.4517  45.3398 0012957  99.6845 260.5860 15.30377874 52161","2023-001CX","55102","6852.821","94.094","483.565","465.807","0"
"GENERATED VIA SPACETRACK.ORG API","18 SPCS","55102","SPACEBEE-157","PAYLOAD","U","23001CX","2023-12-11 17:19:14","289888","15.30377874","0.0012957","97.4517","45.3398","99.6845","260.586","0","999","5216","0.00065928","0.00019369","0","4133725","0 SPACEBEE-157","1 55102U 23001CX  23345.72169317  .00019369  00000-0  65928-3 0  9993","2 55102  97.4517  45.3398 0012957  99.6845 260.5860 15.30377874 52161","2023-001CX","55102","6852.821","94.094","483.565","465.807","0"
"GENERATED VIA SPACETRACK.ORG API","18 SPCS","55102","SPACEBEE-157","PAYLOAD","U","23001CX","2023-12-12 02:44:09","933504","15.30392406","0.0012976","97.4516","45.7334","98.4033","261.8679","0","999","5222","0.00062973","0.00018504","0","4134660","0 SPACEBEE-157","1 55102U 23001CX  23346.11400386  .00018504  00000-0  62973-3 0  9998","2 55102  97.4516  45.7334 0012976  98.4033 261.8679 15.30392406 52228","2023-001CX","55102","6852.778","94.094","483.535","465.750","0"
"GENERATED VIA SPACETRACK.ORG API","18 SPCS","55102","SPACEBEE-157","PAYLOAD","U","23001CX","2023-12-12 16:51:32","791104","15.30417642","0.0012981","97.4513","46.3238","96.5307","263.7412","0","999","5231","0.00070791","0.00020833","0","4134943","0 SPACEBEE-157","1 55102U 23001CX  23346.70246286  .00020833  00000-0  70791-3 0  9995","2 55102  97.4513  46.3238 0012981  96.5307 263.7412 15.30417642 52310","2023-001CX","55102","6852.702","94.092","483.463","465.672","0"
"GENERATED VIA SPACETRACK.ORG API","18 SPCS","55102","SPACEBEE-157","PAYLOAD","U","23001CX","2023-12-13 03:50:36","585024","15.30442443","0.0012987","97.4511","46.783","95.0795","265.1928","0","999","5238","0.00085099","0.00025093","0","4135041","0 SPACEBEE-157","1 55102U 23001CX  23347.16014566  .00025093  00000-0  85099-3 0  9990","2 55102  97.4511  46.7830 0012987  95.0795 265.1928 15.30442443 52383","2023-001CX","55102","6852.628","94.090","483.393","465.594","0"
"GENERATED VIA SPACETRACK.ORG API","18 SPCS","55102","SPACEBEE-157","PAYLOAD","U","23001CX","2023-12-13 03:50:36","585024","15.30442443","0.0012987","97.4511","46.783","95.0795","265.1928","0","999","5238","0.00085099","0.00025093","0","4135433","0 SPACEBEE-157","1 55102U 23001CX  23347.16014566  .00025093  00000-0  85099-3 0  9990","2 55102  97.4511  46.7830 0012987  95.0795 265.1928 15.30442443 52383","2023-001CX","55102","6852.628","94.090","483.393","465.594","0"
"GENERATED VIA SPACETRACK.ORG API","18 SPCS","55102","SPACEBEE-157","PAYLOAD","U","23001CX","2023-12-13 17:57:57","851136","15.30465851","0.0012979","97.4507","47.3733","93.4322","266.8404","0","999","5247","0.00074561","0.00021983","0","4135688","0 SPACEBEE-157","1 55102U 23001CX  23347.74858624  .00021983  00000-0  74561-3 0  9991","2 55102  97.4507  47.3733 0012979  93.4322 266.8404 15.30465851 52471","2023-001CX","55102","6852.558","94.089","483.317","465.529","0"
"GENERATED VIA SPACETRACK.ORG API","18 SPCS","55102","SPACEBEE-157","PAYLOAD","U","23001CX","2023-12-14 03:22:51","444480","15.30486185","0.001295","97.4505","47.7669","91.9884","268.284","0","999","5253","0.00078514","0.0002317","0","4136178","0 SPACEBEE-157","1 55102U 23001CX  23348.14087320  .00023170  00000-0  78514-3 0  9995","2 55102  97.4505  47.7669 0012950  91.9884 268.2840 15.30486185 52536","2023-001CX","55102","6852.498","94.088","483.237","465.489","0"
"GENERATED VIA SPACETRACK.ORG API","18 SPCS","55102","SPACEBEE-157","PAYLOAD","U","23001CX","2023-12-14 17:30:10","849536","15.30520312","0.0012909","97.4505","48.3571","89.9488","270.3232","0","999","5262","0.0007401","0.00021856","0","4136408","0 SPACEBEE-157","1 55102U 23001CX  23348.72929224  .00021856  00000-0  74010-3 0  9993","2 55102  97.4505  48.3571 0012909  89.9488 270.3232 15.30520312 52626","2023-001CX","55102","6852.396","94.086","483.107","465.415","0"
"GENERATED VIA SPACETRACK.ORG API","18 SPCS","55102","SPACEBEE-157","PAYLOAD","U","23001CX","2023-12-14 17:30:10","849536","15.30520312","0.0012909","97.4505","48.3571","89.9488","270.3232","0","999","5262","0.0007401","0.00021856","0","4136513","0 SPACEBEE-157","1 55102U 23001CX  23348.72929224  .00021856  00000-0  74010-3 0  9993","2 55102  97.4505  48.3571 0012909  89.9488 270.3232 15.30520312 52626","2023-001CX","55102","6852.396","94.086","483.107","465.415","0"
